"Type","SousType","Nom","Description","Adresse","E-mail","Link","IdMedia","ComUrbaine","Latitude","Longitude","Altitude"
"Transports","Bus ","Fermata",,"Via Bartolomeo Asquasciati 20",,,"Horaires_Bus_Sanremo_Ventimiglia_ Aller.jpg Horaires_Bus_Sanremo_Ventimiglia_Retour.jpg","Sanremo","43.817653","7.778471"
"Transports","Bus ","Fermata",,"Via Roma 149",,,"Horaires_Bus_Sanremo_Ventimiglia_ Aller.jpg Horaires_Bus_Sanremo_Ventimiglia_Retour.jpg","Sanremo","43.816838","7.777947"
"Transports","Bus ","Fermata",,"Via Roma 49",,,"Horaires_Bus_Sanremo_Ventimiglia_ Aller.jpg Horaires_Bus_Sanremo_Ventimiglia_Retour.jpg","Sanremo","43.815594","7.77493"
"Transports","Bus ","Fermata",,"Piazza Cesare Battisti 16",,,"Horaires_Bus_Sanremo_Ventimiglia_ Aller.jpg Horaires_Bus_Sanremo_Ventimiglia_Retour.jpg","Sanremo","43.814231","7.771947"
"Transports","Bus ","Fermata",,"Lungomare Imperatrice 130",,,"Horaires_Bus_Sanremo_Ventimiglia_ Aller.jpg Horaires_Bus_Sanremo_Ventimiglia_Retour.jpg","Sanremo","43.812396","7.766621"
"Transports","Bus ","Fermata",,"Corso Matuzia 10",,,"Horaires_Bus_Sanremo_Ventimiglia_ Aller.jpg Horaires_Bus_Sanremo_Ventimiglia_Retour.jpg","Sanremo","43.811119","7.762334"
"Transports","Bus ","Fermata",,"Corso Matuzia 183",,,"Horaires_Bus_Sanremo_Ventimiglia_ Aller.jpg Horaires_Bus_Sanremo_Ventimiglia_Retour.jpg","Sanremo","43.8105","7.759867"
"Transports","Bus ","Fermata",,"Corso Guglielmo Marconi 53",,,"Horaires_Bus_Sanremo_Ventimiglia_ Aller.jpg Horaires_Bus_Sanremo_Ventimiglia_Retour.jpg","Sanremo","43.808843","7.755597"
"Transports","Bus ","Fermata",,"Corso Guglielmo Marconi 54",,,"Horaires_Bus_Sanremo_Ventimiglia_ Aller.jpg Horaires_Bus_Sanremo_Ventimiglia_Retour.jpg","Sanremo","43.808343","7.754368"
"Transports","Bus ","Fermata",,"Via Montà dei Gusci 1",,,"Horaires_Bus_Sanremo_Ventimiglia_ Aller.jpg Horaires_Bus_Sanremo_Ventimiglia_Retour.jpg","Sanremo","43.807681","7.752606"
"Transports","Bus ","Fermata",,"Corso Guglielmo Marcono Incrocio Via Al Sole 1",,,"Horaires_Bus_Sanremo_Ventimiglia_ Aller.jpg Horaires_Bus_Sanremo_Ventimiglia_Retour.jpg","Sanremo","43.806086","7.749728"
"Transports","Bus ","Fermata",,"Corso Guglielmo Marconi 144",,,"Horaires_Bus_Sanremo_Ventimiglia_ Aller.jpg Horaires_Bus_Sanremo_Ventimiglia_Retour.jpg","Sanremo","43.805047","7.747207"
"Transports","Bus ","Fermata",,"Corso Guglielmo Marconi 254",,,"Horaires_Bus_Sanremo_Ventimiglia_ Aller.jpg Horaires_Bus_Sanremo_Ventimiglia_Retour.jpg","Sanremo","43.801754","7.743926"
"Transports","Bus ","Fermata",,"Corso Guglielmo Marconi 304",,,"Horaires_Bus_Sanremo_Ventimiglia_ Aller.jpg Horaires_Bus_Sanremo_Ventimiglia_Retour.jpg","Sanremo","43.799892","7.741585"
"Transports","Bus ","Fermata",,"Corso Guglielmo Marconi 360",,,"Horaires_Bus_Sanremo_Ventimiglia_ Aller.jpg Horaires_Bus_Sanremo_Ventimiglia_Retour.jpg","Sanremo","43.798281","7.740619"
"Transports","Bus ","Fermata",,"Corso Guglielmo Marconi 434",,,"Horaires_Bus_Sanremo_Ventimiglia_ Aller.jpg Horaires_Bus_Sanremo_Ventimiglia_Retour.jpg","Caponero","43.796175","7.736955"
"Transports","Bus ","Fermata",,"Via Aurelia Levante 37",,,"Horaires_Bus_Sanremo_Ventimiglia_ Aller.jpg Horaires_Bus_Sanremo_Ventimiglia_Retour.jpg","Ospedaletti","43.796761","7.733702"
"Transports","Bus ","Fermata",,"Via Aurelia Levante ",,,"Horaires_Bus_Sanremo_Ventimiglia_ Aller.jpg Horaires_Bus_Sanremo_Ventimiglia_Retour.jpg","Ospedaletti","43.79734","7.731505"
"Transports","Bus ","Fermata",,"Via Aurelia Levante Incrocio Via Cavalieri di Malta",,,"Horaires_Bus_Sanremo_Ventimiglia_ Aller.jpg Horaires_Bus_Sanremo_Ventimiglia_Retour.jpg","Ospedaletti","43.798606","7.727576"
"Transports","Bus ","Fermata",,"Corso Regina Margherita 12",,,"Horaires_Bus_Sanremo_Ventimiglia_ Aller.jpg Horaires_Bus_Sanremo_Ventimiglia_Retour.jpg","Ospedaletti","43.799611","7.724869"
"Transports","Bus ","Fermata",,"Corso Regina Margherita Incrocio Via Giacomo Matteotti",,,"Horaires_Bus_Sanremo_Ventimiglia_ Aller.jpg Horaires_Bus_Sanremo_Ventimiglia_Retour.jpg","Ospedaletti","43.800976","7.721986"
"Transports","Bus ","Fermata",,"Corso Regina Margherita 53",,,"Horaires_Bus_Sanremo_Ventimiglia_ Aller.jpg Horaires_Bus_Sanremo_Ventimiglia_Retour.jpg","Ospedaletti","43.801975","7.717981"
"Transports","Bus ","Fermata",,"Corso Regina Margherita Incrocio Via degli Ulivi",,,"Horaires_Bus_Sanremo_Ventimiglia_ Aller.jpg Horaires_Bus_Sanremo_Ventimiglia_Retour.jpg","Ospedaletti","43.802246","7.713743"
"Transports","Bus ","Fermata",,"Corso Regina Margherita Incrocio Via XX Settembre",,,"Horaires_Bus_Sanremo_Ventimiglia_ Aller.jpg Horaires_Bus_Sanremo_Ventimiglia_Retour.jpg","Ospedaletti","43.801586","7.710785"
"Transports","Bus ","Fermata",,"Corso Aurelia Ponente 30",,,"Horaires_Bus_Sanremo_Ventimiglia_ Aller.jpg Horaires_Bus_Sanremo_Ventimiglia_Retour.jpg","Ospedaletti","43.801032","7.705383"
"Transports","Bus ","Fermata",,"Via Madonna della Ruota ",,,"Horaires_Bus_Sanremo_Ventimiglia_ Aller.jpg Horaires_Bus_Sanremo_Ventimiglia_Retour.jpg","Bordighera","43.799888","7.700402"
"Transports","Bus ","Fermata",,"Via Madonna della Ruota 42",,,"Horaires_Bus_Sanremo_Ventimiglia_ Aller.jpg Horaires_Bus_Sanremo_Ventimiglia_Retour.jpg","Bordighera","43.796308","7.694751"
"Transports","Bus ","Fermata",,"Via Madonna della Ruota 37",,,"Horaires_Bus_Sanremo_Ventimiglia_ Aller.jpg Horaires_Bus_Sanremo_Ventimiglia_Retour.jpg","Bordighera","43.793991","7.693198"
"Transports","Bus ","Fermata",,"Via Arziglia 102",,,"Horaires_Bus_Sanremo_Ventimiglia_ Aller.jpg Horaires_Bus_Sanremo_Ventimiglia_Retour.jpg","Bordighera","43.785409","7.681782"
"Transports","Bus ","Fermata",,"Via Arziglia Incrocio Via al Camposanto",,,"Horaires_Bus_Sanremo_Ventimiglia_ Aller.jpg Horaires_Bus_Sanremo_Ventimiglia_Retour.jpg","Bordighera","43.783411","7.677501"
"Transports","Bus ","Fermata",,"Via Arziglia 23",,,"Horaires_Bus_Sanremo_Ventimiglia_ Aller.jpg Horaires_Bus_Sanremo_Ventimiglia_Retour.jpg","Bordighera","43.780994","7.675517"
"Transports","Bus ","Fermata",,"Via Arziglia Incrocio Via Sant'Ampello",,,"Horaires_Bus_Sanremo_Ventimiglia_ Aller.jpg Horaires_Bus_Sanremo_Ventimiglia_Retour.jpg","Bordighera","43.77775","7.673851"
"Transports","Bus ","Fermata",,"Piazza Garibaldi",,,"Horaires_Bus_Sanremo_Ventimiglia_ Aller.jpg Horaires_Bus_Sanremo_Ventimiglia_Retour.jpg","Bordighera","43.77844","7.668736"
"Transports","Bus ","Fermata",,"Via della Libertà 56",,,"Horaires_Bus_Sanremo_Ventimiglia_ Aller.jpg Horaires_Bus_Sanremo_Ventimiglia_Retour.jpg","Bordighera","43.778682","7.666706"
"Transports","Bus ","Fermata",,"Corso Vittorio Emanuele 203 Incrocio Via Primo Maggio",,,"Horaires_Bus_Sanremo_Ventimiglia_ Aller.jpg Horaires_Bus_Sanremo_Ventimiglia_Retour.jpg","Bordighera","43.779317","7.662846"
"Transports","Bus ","Fermata",,"Corso Vittorio Emanuele 292",,,"Horaires_Bus_Sanremo_Ventimiglia_ Aller.jpg Horaires_Bus_Sanremo_Ventimiglia_Retour.jpg","Bordighera","43.780696","7.657573"
"Transports","Bus ","Fermata",,"Via Aurelia 13",,,"Horaires_Bus_Sanremo_Ventimiglia_ Aller.jpg Horaires_Bus_Sanremo_Ventimiglia_Retour.jpg","Bordighera","43.781523","7.653447"
"Transports","Bus ","Fermata",,"Via Aurelia 77",,,"Horaires_Bus_Sanremo_Ventimiglia_ Aller.jpg Horaires_Bus_Sanremo_Ventimiglia_Retour.jpg","Bordighera","43.782148","7.651084"
"Transports","Bus ","Fermata",,"Via Aurelia 143",,,"Horaires_Bus_Sanremo_Ventimiglia_ Aller.jpg Horaires_Bus_Sanremo_Ventimiglia_Retour.jpg","Bordighera","43.782977","7.648158"
"Transports","Bus ","Fermata",,"Via Colonnello Aprosio 564",,,"Horaires_Bus_Sanremo_Ventimiglia_ Aller.jpg Horaires_Bus_Sanremo_Ventimiglia_Retour.jpg","Vallecrosia","43.784102","7.644199"
"Transports","Bus ","Fermata",,"Via Colonnello Aprosio Incrocio Via Fondeghe",,,"Horaires_Bus_Sanremo_Ventimiglia_ Aller.jpg Horaires_Bus_Sanremo_Ventimiglia_Retour.jpg","Vallecrosia","43.78674","7.638143"
"Transports","Bus ","Fermata",,"Via Colonnello Aprosio 40",,,"Horaires_Bus_Sanremo_Ventimiglia_ Aller.jpg Horaires_Bus_Sanremo_Ventimiglia_Retour.jpg","Vallecrosia","43.787495","7.636466"
"Transports","Bus ","Fermata",,"Via Aurelia Incrocio Via Alcide de Gasperi",,,"Horaires_Bus_Sanremo_Ventimiglia_ Aller.jpg Horaires_Bus_Sanremo_Ventimiglia_Retour.jpg","Camporosso","43.78897","7.633132"
"Transports","Bus ","Fermata",,"Corso Genova 17",,,"Horaires_Bus_Sanremo_Ventimiglia_ Aller.jpg Horaires_Bus_Sanremo_Ventimiglia_Retour.jpg","Ventimiglia","43.790277","7.614019"
"Transports","Bus ","Fermata",,"Via Cavour 48 Incrocio Via Giuseppe Mazzini",,,"Horaires_Bus_Sanremo_Ventimiglia_ Aller.jpg Horaires_Bus_Sanremo_Ventimiglia_Retour.jpg","Ventimiglia","43.791057","7.610926"
"Transports","Bus ","Fermata",,"Via Camillo Benso Cavour 44",,,"Horaires_Bus_Sanremo_Ventimiglia_ Aller.jpg Horaires_Bus_Sanremo_Ventimiglia_Retour.jpg","Ventimiglia","43.791782","7.608791"
"Transports","Bus ","Fermata",,"Via Camillo Benso Cavour 11",,,"Horaires_Bus_Sanremo_Ventimiglia_ Aller.jpg Horaires_Bus_Sanremo_Ventimiglia_Retour.jpg","Ventimiglia","43.792937","7.606367"
"Transports","Bus ","Fermata",,"Piazza della Costituente",,,"Horaires_Bus_Sanremo_Ventimiglia_ Aller.jpg Horaires_Bus_Sanremo_Ventimiglia_Retour.jpg","Ventimiglia","43.791733","7.603333"
,,,,,,,,,,
,,,,,,,,,,
,,,,,,,,,,
,,,,,,,,,,
,,,,,,,,,,
,,,,,,,,,,
